OBJECT_NAME,OBJECT_ID,EPOCH,MEAN_MOTION,ECCENTRICITY,INCLINATION,RA_OF_ASC_NODE,ARG_OF_PERICENTER,MEAN_ANOMALY,EPHEMERIS_TYPE,CLASSIFICATION_TYPE,NORAD_CAT_ID,ELEMENT_SET_NO,REV_AT_EPOCH,BSTAR,MEAN_MOTION_DOT,MEAN_MOTION_DDOT
STARS-X,2026-132A,2026-07-11T17:15:21.930912,14.99103788,.00142251,97.6885,256.0686,177.0974,183.0335,0,U,69502,999,445,.10353689E-3,.1201E-4,0
PETREL,2026-132B,2026-07-11T17:12:56.012544,14.99181497,.00141119,97.6914,256.0822,178.9573,181.1681,0,U,69503,999,445,.84845819E-4,.975E-5,0
BRO-22,2026-132C,2026-07-11T15:19:09.514848,14.99799209,.00161739,97.6832,256.0050,193.6747,166.4040,0,U,69504,999,444,.54609606E-4,.617E-5,0
HORN-L,2026-132D,2026-07-10T14:22:11.626752,15.11180435,.00288531,97.6828,255.1999,224.9163,134.9732,0,U,69505,999,430,.16993246E-3,.2811E-4,0
VERTECS,2026-132E,2026-07-11T09:58:35.731776,15.00983348,.00153686,97.6827,255.8474,219.4565,140.5541,0,U,69506,999,440,.89135366E-4,.1079E-4,0
HORN-R,2026-132F,2026-07-09T10:39:46.959264,15.05461380,.00192264,97.6839,253.9669,226.0665,133.8976,0,U,69507,999,411,.72042597E-4,.975E-5,0
STARLINK-37536,2026-133A,2026-07-11T10:47:49.321824,15.49325262,.00008629,53.1576,202.7623,72.4560,287.6543,0,U,69508,999,457,.55766626E-3,.30706E-3,0
STARLINK-37341,2026-133B,2026-07-11T10:50:29.190336,15.49336557,.00009937,53.1590,202.7751,56.6800,303.4304,0,U,69509,999,458,.81801304E-3,.45355E-3,0
STARLINK-36536,2026-133C,2026-07-11T18:00:02.000160,15.35403731,.00011813,53.1590,200.7232,90.6453,81.4197,0,U,69510,999,586,-.18097748E-3,-.6688E-4,0
STARLINK-37420,2026-133D,2026-07-11T18:00:02.000160,15.38469834,.0001858,53.1594,200.4643,120.7109,178.4066,0,U,69511,999,582,-.15390405E+0,-.5062058E-1,0
STARLINK-37511,2026-133E,2026-07-11T18:00:02.000160,15.33577022,.00008397,53.1593,200.5179,70.1232,202.3375,0,U,69512,999,582,-.10319685E-2,-.34187E-3,0
STARLINK-37552,2026-133F,2026-07-11T01:32:18.909600,15.49325269,.00018574,53.1587,204.6185,69.2199,290.9009,0,U,69513,999,578,.53501071E-3,.29436E-3,0
STARLINK-37607,2026-133G,2026-07-11T18:00:02.000160,15.35380148,.00014831,53.1595,200.6144,112.3345,110.9568,0,U,69514,999,582,-.25136196E-3,-.9132E-4,0
STARLINK-37232,2026-133H,2026-07-11T08:41:05.685504,15.49340823,.00006755,53.1599,202.9120,15.5329,344.5701,0,U,69515,999,456,.85187072E-3,.47269E-3,0
STARLINK-37323,2026-133J,2026-07-11T18:00:02.000160,15.37811377,.00020629,53.1598,200.3402,130.6254,227.8099,0,U,69516,999,582,-.17745221E+0,-.5748156E-1,0
STARLINK-37357,2026-133K,2026-07-11T10:48:37.431072,15.49348618,.00010431,53.1648,202.7655,345.0957,15.0022,0,U,69517,999,583,.65181996E-3,.36021E-3,0
STARLINK-37408,2026-133L,2026-07-11T12:20:23.673696,15.48863350,.00009033,53.1597,201.7144,166.7623,193.3410,0,U,69518,999,586,-.67415928E-2,-.353335E-2,0
STARLINK-37570,2026-133M,2026-07-11T08:44:55.703040,15.49338344,.0000754,53.1605,202.9265,48.0204,312.0869,0,U,69519,999,583,.81938712E-3,.45435E-3,0
STARLINK-37510,2026-133N,2026-07-11T10:11:07.482624,15.49313018,.0001722,53.1551,202.5861,94.9924,265.1281,0,U,69520,999,584,.31945733E-3,.17361E-3,0
STARLINK-37586,2026-133P,2026-07-11T18:00:02.000160,15.33519602,.00014543,53.1596,200.2815,110.7807,273.9125,0,U,69521,999,582,-.63421826E-4,-.2456E-4,0
STARLINK-37379,2026-133Q,2026-07-11T11:04:46.717248,15.49341064,.00005482,53.1606,202.0992,221.7908,138.3059,0,U,69522,999,585,.56143105E-3,.30935E-3,0
STARLINK-37429,2026-133R,2026-07-10T12:45:17.599680,15.49342375,.0001182,53.1595,206.9677,74.4967,285.6173,0,U,69523,999,570,.10132E-2,.56376E-3,0
STARLINK-37352,2026-133S,2026-07-11T09:29:53.485152,15.49349205,.00007042,53.1619,202.3954,150.9895,209.1154,0,U,69524,999,584,.80941203E-3,.44891E-3,0
STARLINK-37490,2026-133T,2026-07-11T18:00:02.000160,15.40006530,.00014736,53.1598,200.2969,59.0309,317.8659,0,U,69525,999,587,-.8462373E-1,-.3019437E-1,0
STARLINK-37438,2026-133U,2026-07-11T09:50:06.557568,15.49333091,.00010312,53.1593,202.4873,81.2697,278.8429,0,U,69526,999,584,.58644076E-3,.3233E-3,0
STARLINK-37484,2026-133V,2026-07-11T18:00:02.000160,15.35394406,.00010307,53.1598,200.2740,64.2209,322.9542,0,U,69527,999,587,-.42595562E-4,-.1865E-4,0
STARLINK-37523,2026-133W,2026-07-11T00:08:34.399680,15.49341122,.00025678,53.1554,204.2292,79.6135,280.5163,0,U,69528,999,578,.57286116E-3,.31578E-3,0
STARLINK-37369,2026-133X,2026-07-11T00:03:29.812032,15.49328692,.00010774,53.1589,204.2045,86.3007,273.8125,0,U,69529,999,578,.83235371E-3,.4615E-3,0
STARLINK-37670,2026-133Y,2026-07-11T09:42:24.868800,15.49346785,.00010669,53.1606,202.4495,90.6092,269.5039,0,U,69530,999,584,.74985556E-3,.41533E-3,0
STARLINK-37897,2026-133Z,2026-07-11T18:00:02.000160,15.42148461,.00010856,53.1600,200.1767,111.6745,322.1728,0,U,69531,999,582,-.75790385E-1,-.2918666E-1,0
